<?xml version="1.0" encoding="UTF-8"?>
<ndm xmlns:xsi="http://www.w3.org/2001/XMLSchema-instance" xsi:noNamespaceSchemaLocation="https://sanaregistry.org/r/ndmxml_unqualified/ndmxml-2.0.0-master-2.0.xsd">
<omm id="CCSDS_OMM_VERS" version="2.0">
<header><CREATION_DATE/><ORIGINATOR/></header><body><segment><metadata><OBJECT_NAME>KUIPER-00089</OBJECT_NAME><OBJECT_ID>2025-151U</OBJECT_ID><CENTER_NAME>EARTH</CENTER_NAME><REF_FRAME>TEME</REF_FRAME><TIME_SYSTEM>UTC</TIME_SYSTEM><MEAN_ELEMENT_THEORY>SGP4</MEAN_ELEMENT_THEORY></metadata><data><meanElements><EPOCH>2025-09-20T06:00:02.999808</EPOCH><MEAN_MOTION>15.34814659</MEAN_MOTION><ECCENTRICITY>.00074552</ECCENTRICITY><INCLINATION>51.8816</INCLINATION><RA_OF_ASC_NODE>329.3376</RA_OF_ASC_NODE><ARG_OF_PERICENTER>34.3861</ARG_OF_PERICENTER><MEAN_ANOMALY>341.8077</MEAN_ANOMALY></meanElements><tleParameters><EPHEMERIS_TYPE>0</EPHEMERIS_TYPE><CLASSIFICATION_TYPE>U</CLASSIFICATION_TYPE><NORAD_CAT_ID>64834</NORAD_CAT_ID><ELEMENT_SET_NO>999</ELEMENT_SET_NO><REV_AT_EPOCH>570</REV_AT_EPOCH><BSTAR>.74940923E-3</BSTAR><MEAN_MOTION_DOT>.25406E-3</MEAN_MOTION_DOT><MEAN_MOTION_DDOT>0</MEAN_MOTION_DDOT></tleParameters></data></segment></body></omm>
<omm id="CCSDS_OMM_VERS" version="2.0">
<header><CREATION_DATE/><ORIGINATOR/></header><body><segment><metadata><OBJECT_NAME>KUIPER-00090</OBJECT_NAME><OBJECT_ID>2025-151V</OBJECT_ID><CENTER_NAME>EARTH</CENTER_NAME><REF_FRAME>TEME</REF_FRAME><TIME_SYSTEM>UTC</TIME_SYSTEM><MEAN_ELEMENT_THEORY>SGP4</MEAN_ELEMENT_THEORY></metadata><data><meanElements><EPOCH>2025-09-19T14:33:37.713600</EPOCH><MEAN_MOTION>15.36627948</MEAN_MOTION><ECCENTRICITY>.00077587</ECCENTRICITY><INCLINATION>51.8804</INCLINATION><RA_OF_ASC_NODE>332.5512</RA_OF_ASC_NODE><ARG_OF_PERICENTER>33.0172</ARG_OF_PERICENTER><MEAN_ANOMALY>327.1297</MEAN_ANOMALY></meanElements><tleParameters><EPHEMERIS_TYPE>0</EPHEMERIS_TYPE><CLASSIFICATION_TYPE>U</CLASSIFICATION_TYPE><NORAD_CAT_ID>64835</NORAD_CAT_ID><ELEMENT_SET_NO>999</ELEMENT_SET_NO><REV_AT_EPOCH>1003</REV_AT_EPOCH><BSTAR>.11337405E-2</BSTAR><MEAN_MOTION_DOT>.41047E-3</MEAN_MOTION_DOT><MEAN_MOTION_DDOT>0</MEAN_MOTION_DDOT></tleParameters></data></segment></body></omm>
<omm id="CCSDS_OMM_VERS" version="2.0">
<header><CREATION_DATE/><ORIGINATOR/></header><body><segment><metadata><OBJECT_NAME>KUIPER-00091</OBJECT_NAME><OBJECT_ID>2025-151W</OBJECT_ID><CENTER_NAME>EARTH</CENTER_NAME><REF_FRAME>TEME</REF_FRAME><TIME_SYSTEM>UTC</TIME_SYSTEM><MEAN_ELEMENT_THEORY>SGP4</MEAN_ELEMENT_THEORY></metadata><data><meanElements><EPOCH>2025-09-19T21:47:19.040064</EPOCH><MEAN_MOTION>15.37105249</MEAN_MOTION><ECCENTRICITY>.00078022</ECCENTRICITY><INCLINATION>51.8811</INCLINATION><RA_OF_ASC_NODE>330.8185</RA_OF_ASC_NODE><ARG_OF_PERICENTER>18.0487</ARG_OF_PERICENTER><MEAN_ANOMALY>342.0775</MEAN_ANOMALY></meanElements><tleParameters><EPHEMERIS_TYPE>0</EPHEMERIS_TYPE><CLASSIFICATION_TYPE>U</CLASSIFICATION_TYPE><NORAD_CAT_ID>64836</NORAD_CAT_ID><ELEMENT_SET_NO>999</ELEMENT_SET_NO><REV_AT_EPOCH>1008</REV_AT_EPOCH><BSTAR>.90841248E-3</BSTAR><MEAN_MOTION_DOT>.33291E-3</MEAN_MOTION_DOT><MEAN_MOTION_DDOT>0</MEAN_MOTION_DDOT></tleParameters></data></segment></body></omm>
<omm id="CCSDS_OMM_VERS" version="2.0">
<header><CREATION_DATE/><ORIGINATOR/></header><body><segment><metadata><OBJECT_NAME>KUIPER-00092</OBJECT_NAME><OBJECT_ID>2025-151X</OBJECT_ID><CENTER_NAME>EARTH</CENTER_NAME><REF_FRAME>TEME</REF_FRAME><TIME_SYSTEM>UTC</TIME_SYSTEM><MEAN_ELEMENT_THEORY>SGP4</MEAN_ELEMENT_THEORY></metadata><data><meanElements><EPOCH>2025-09-20T06:00:02.999808</EPOCH><MEAN_MOTION>15.22721656</MEAN_MOTION><ECCENTRICITY>.00094339</ECCENTRICITY><INCLINATION>51.8828</INCLINATION><RA_OF_ASC_NODE>329.9161</RA_OF_ASC_NODE><ARG_OF_PERICENTER>19.7941</ARG_OF_PERICENTER><MEAN_ANOMALY>81.5117</MEAN_ANOMALY></meanElements><tleParameters><EPHEMERIS_TYPE>0</EPHEMERIS_TYPE><CLASSIFICATION_TYPE>U</CLASSIFICATION_TYPE><NORAD_CAT_ID>64837</NORAD_CAT_ID><ELEMENT_SET_NO>999</ELEMENT_SET_NO><REV_AT_EPOCH>586</REV_AT_EPOCH><BSTAR>-.17245081E-1</BSTAR><MEAN_MOTION_DOT>-.387949E-2</MEAN_MOTION_DOT><MEAN_MOTION_DDOT>0</MEAN_MOTION_DDOT></tleParameters></data></segment></body></omm>
<omm id="CCSDS_OMM_VERS" version="2.0">
<header><CREATION_DATE/><ORIGINATOR/></header><body><segment><metadata><OBJECT_NAME>KUIPER-00093</OBJECT_NAME><OBJECT_ID>2025-151Y</OBJECT_ID><CENTER_NAME>EARTH</CENTER_NAME><REF_FRAME>TEME</REF_FRAME><TIME_SYSTEM>UTC</TIME_SYSTEM><MEAN_ELEMENT_THEORY>SGP4</MEAN_ELEMENT_THEORY></metadata><data><meanElements><EPOCH>2025-09-20T06:00:02.999808</EPOCH><MEAN_MOTION>15.15510974</MEAN_MOTION><ECCENTRICITY>.00130154</ECCENTRICITY><INCLINATION>51.8878</INCLINATION><RA_OF_ASC_NODE>330.8076</RA_OF_ASC_NODE><ARG_OF_PERICENTER>37.0907</ARG_OF_PERICENTER><MEAN_ANOMALY>292.7365</MEAN_ANOMALY></meanElements><tleParameters><EPHEMERIS_TYPE>0</EPHEMERIS_TYPE><CLASSIFICATION_TYPE>U</CLASSIFICATION_TYPE><NORAD_CAT_ID>64838</NORAD_CAT_ID><ELEMENT_SET_NO>999</ELEMENT_SET_NO><REV_AT_EPOCH>366</REV_AT_EPOCH><BSTAR>-.11980102E-2</BSTAR><MEAN_MOTION_DOT>-.23274E-3</MEAN_MOTION_DOT><MEAN_MOTION_DDOT>0</MEAN_MOTION_DDOT></tleParameters></data></segment></body></omm>
<omm id="CCSDS_OMM_VERS" version="2.0">
<header><CREATION_DATE/><ORIGINATOR/></header><body><segment><metadata><OBJECT_NAME>KUIPER-00094</OBJECT_NAME><OBJECT_ID>2025-151Z</OBJECT_ID><CENTER_NAME>EARTH</CENTER_NAME><REF_FRAME>TEME</REF_FRAME><TIME_SYSTEM>UTC</TIME_SYSTEM><MEAN_ELEMENT_THEORY>SGP4</MEAN_ELEMENT_THEORY></metadata><data><meanElements><EPOCH>2025-09-20T06:00:02.999808</EPOCH><MEAN_MOTION>15.32316994</MEAN_MOTION><ECCENTRICITY>.00078134</ECCENTRICITY><INCLINATION>51.8825</INCLINATION><RA_OF_ASC_NODE>329.2390</RA_OF_ASC_NODE><ARG_OF_PERICENTER>33.2105</ARG_OF_PERICENTER><MEAN_ANOMALY>14.1182</MEAN_ANOMALY></meanElements><tleParameters><EPHEMERIS_TYPE>0</EPHEMERIS_TYPE><CLASSIFICATION_TYPE>U</CLASSIFICATION_TYPE><NORAD_CAT_ID>64839</NORAD_CAT_ID><ELEMENT_SET_NO>999</ELEMENT_SET_NO><REV_AT_EPOCH>595</REV_AT_EPOCH><BSTAR>-.17214516E-1</BSTAR><MEAN_MOTION_DOT>-.510787E-2</MEAN_MOTION_DOT><MEAN_MOTION_DDOT>0</MEAN_MOTION_DDOT></tleParameters></data></segment></body></omm>
<omm id="CCSDS_OMM_VERS" version="2.0">
<header><CREATION_DATE/><ORIGINATOR/></header><body><segment><metadata><OBJECT_NAME>KUIPER-00081</OBJECT_NAME><OBJECT_ID>2025-171A</OBJECT_ID><CENTER_NAME>EARTH</CENTER_NAME><REF_FRAME>TEME</REF_FRAME><TIME_SYSTEM>UTC</TIME_SYSTEM><MEAN_ELEMENT_THEORY>SGP4</MEAN_ELEMENT_THEORY></metadata><data><meanElements><EPOCH>2025-09-19T21:10:24.277152</EPOCH><MEAN_MOTION>15.36624984</MEAN_MOTION><ECCENTRICITY>.00040372</ECCENTRICITY><INCLINATION>51.8727</INCLINATION><RA_OF_ASC_NODE>214.7470</RA_OF_ASC_NODE><ARG_OF_PERICENTER>264.0845</ARG_OF_PERICENTER><MEAN_ANOMALY>95.9682</MEAN_ANOMALY></meanElements><tleParameters><EPHEMERIS_TYPE>0</EPHEMERIS_TYPE><CLASSIFICATION_TYPE>U</CLASSIFICATION_TYPE><NORAD_CAT_ID>65132</NORAD_CAT_ID><ELEMENT_SET_NO>999</ELEMENT_SET_NO><REV_AT_EPOCH>730</REV_AT_EPOCH><BSTAR>.99262195E-3</BSTAR><MEAN_MOTION_DOT>.35839E-3</MEAN_MOTION_DOT><MEAN_MOTION_DDOT>0</MEAN_MOTION_DDOT></tleParameters></data></segment></body></omm>
<omm id="CCSDS_OMM_VERS" version="2.0">
<header><CREATION_DATE/><ORIGINATOR/></header><body><segment><metadata><OBJECT_NAME>KUIPER-00088</OBJECT_NAME><OBJECT_ID>2025-171B</OBJECT_ID><CENTER_NAME>EARTH</CENTER_NAME><REF_FRAME>TEME</REF_FRAME><TIME_SYSTEM>UTC</TIME_SYSTEM><MEAN_ELEMENT_THEORY>SGP4</MEAN_ELEMENT_THEORY></metadata><data><meanElements><EPOCH>2025-09-19T05:33:53.743392</EPOCH><MEAN_MOTION>15.36532586</MEAN_MOTION><ECCENTRICITY>.00047711</ECCENTRICITY><INCLINATION>51.8762</INCLINATION><RA_OF_ASC_NODE>217.8880</RA_OF_ASC_NODE><ARG_OF_PERICENTER>288.6920</ARG_OF_PERICENTER><MEAN_ANOMALY>71.3549</MEAN_ANOMALY></meanElements><tleParameters><EPHEMERIS_TYPE>0</EPHEMERIS_TYPE><CLASSIFICATION_TYPE>U</CLASSIFICATION_TYPE><NORAD_CAT_ID>65133</NORAD_CAT_ID><ELEMENT_SET_NO>999</ELEMENT_SET_NO><REV_AT_EPOCH>720</REV_AT_EPOCH><BSTAR>.49766297E-2</BSTAR><MEAN_MOTION_DOT>.184301E-2</MEAN_MOTION_DOT><MEAN_MOTION_DDOT>0</MEAN_MOTION_DDOT></tleParameters></data></segment></body></omm>

</ndm>
