KUIPER-00089            
1 64834U 25151U   25263.25003472  .00025406  00000+0  74941-3 0  9994
2 64834  51.8816 329.3376 0007455  34.3861 341.8077 15.34814659  5703
KUIPER-00090            
1 64835U 25151V   25262.60668650  .00041047  00000+0  11337-2 0  9996
2 64835  51.8804 332.5512 0007758  33.0172 327.1297 15.36627948 10034
KUIPER-00091            
1 64836U 25151W   25262.90785926  .00033291  00000+0  90841-3 0  9996
2 64836  51.8811 330.8185 0007802  18.0487 342.0775 15.37105249 10080
KUIPER-00092            
1 64837U 25151X   25263.25003472 -.00387949  00000+0 -17245-1 0  9994
2 64837  51.8828 329.9161 0009433  19.7941  81.5117 15.22721656  5862
KUIPER-00093            
1 64838U 25151Y   25263.25003472 -.00023274  00000+0 -11980-2 0  9994
2 64838  51.8878 330.8076 0013015  37.0907 292.7365 15.15510974  3668
KUIPER-00094            
1 64839U 25151Z   25263.25003472 -.00510787  00000+0 -17215-1 0  9991
2 64839  51.8825 329.2390 0007813  33.2105  14.1182 15.32316994  5951
KUIPER-00081            
1 65132U 25171A   25262.88222543  .00035839  00000+0  99262-3 0  9992
2 65132  51.8727 214.7470 0004037 264.0845  95.9682 15.36624984  7304
KUIPER-00088            
1 65133U 25171B   25262.23187203  .00184301  00000+0  49766-2 0  9997
2 65133  51.8762 217.8880 0004771 288.6920  71.3549 15.36532586  7209
